{"type": "FeatureCollection", "features": [ {"type": "Feature", "properties": {"norad_id": 34058, "name": "COSMOS 2251 DEB", "group": "cosmos-2251-debris", "lat": 22.91708403607357, "lon": 165.326160110058, "alt_km": 1211.904294112781, "timestamp": "2025-12-24T22:42:22.427712+00:00", "meta": {"OBJECT_NAME": "COSMOS 2251 DEB", "OBJECT_ID": "1993-036JV", "EPOCH": "2025-12-23T22:24:33.274080", "MEAN_MOTION": 13.56093263, "ECCENTRICITY": 0.037744, "INCLINATION": 73.9316, "RA_OF_ASC_NODE": 159.9681, "ARG_OF_PERICENTER": 153.0768, "MEAN_ANOMALY": 333.9116, "EPHEMERIS_TYPE": 0, "CLASSIFICATION_TYPE": "U", "NORAD_CAT_ID": 34058, "ELEMENT_SET_NO": 999, "REV_AT_EPOCH": 83294, "BSTAR": 0.00072093, "MEAN_MOTION_DOT": 7.8e-06, "MEAN_MOTION_DDOT": 0}, "tle": {"line1": "1 34058U 93036JV  25357.93371845  .00000780  00000+0  72093-3 0  9991", "line2": "2 34058  73.9316 159.9681 0377440 153.0768 333.9116 13.56093263832945"}}, "geometry": {"type": "Point", "coordinates": [165.326160110058, 22.91708403607357]}}, {"type": "Feature", "properties": {"norad_id": 34059, "name": "COSMOS 2251 DEB", "group": "cosmos-2251-debris", "lat": -1.9491792374839787, "lon": -16.19296445121206, "alt_km": 711.6561724572539, "timestamp": "2025-12-24T22:42:22.427722+00:00", "meta": {"OBJECT_NAME": "COSMOS 2251 DEB", "OBJECT_ID": "1993-036JW", "EPOCH": "2025-12-24T04:13:58.154592", "MEAN_MOTION": 14.53013399, "ECCENTRICITY": 0.00184108, "INCLINATION": 74.0374, "RA_OF_ASC_NODE": 164.7006, "ARG_OF_PERICENTER": 241.0694, "MEAN_ANOMALY": 236.3401, "EPHEMERIS_TYPE": 0, "CLASSIFICATION_TYPE": "U", "NORAD_CAT_ID": 34059, "ELEMENT_SET_NO": 999, "REV_AT_EPOCH": 88625, "BSTAR": 0.00086070324, "MEAN_MOTION_DOT": 3.534e-05, "MEAN_MOTION_DDOT": 0}, "tle": {"line1": "1 34059U 93036JW  25358.17636753  .00003534  00000+0  86070-3 0  9991", "line2": "2 34059  74.0374 164.7006 0018410 241.0694 236.3401 14.53013399886258"}}, "geometry": {"type": "Point", "coordinates": [-16.19296445121206, -1.9491792374839787]}}, {"type": "Feature", "properties": {"norad_id": 34061, "name": "COSMOS 2251 DEB", "group": "cosmos-2251-debris", "lat": -23.62995384785018, "lon": -126.365960294322, "alt_km": 748.3181190253081, "timestamp": "2025-12-24T22:42:22.427733+00:00", "meta": {"OBJECT_NAME": "COSMOS 2251 DEB", "OBJECT_ID": "1993-036JY", "EPOCH": "2025-12-24T03:31:32.090880", "MEAN_MOTION": 14.40379459, "ECCENTRICITY": 0.00208773, "INCLINATION": 74.0386, "RA_OF_ASC_NODE": 242.3041, "ARG_OF_PERICENTER": 317.5873, "MEAN_ANOMALY": 195.3616, "EPHEMERIS_TYPE": 0, "CLASSIFICATION_TYPE": "U", "NORAD_CAT_ID": 34061, "ELEMENT_SET_NO": 999, "REV_AT_EPOCH": 88344, "BSTAR": 0.00027102694, "MEAN_MOTION_DOT": 8.36e-06, "MEAN_MOTION_DDOT": 0}, "tle": {"line1": "1 34061U 93036JY  25358.14689920  .00000836  00000+0  27103-3 0  9999", "line2": "2 34061  74.0386 242.3041 0020877 317.5873 195.3616 14.40379459883442"}}, "geometry": {"type": "Point", "coordinates": [-126.365960294322, -23.62995384785018]}}, {"type": "Feature", "properties": {"norad_id": 34062, "name": "COSMOS 2251 DEB", "group": "cosmos-2251-debris", "lat": -12.012767832613543, "lon": 110.52845652625973, "alt_km": 683.2582357165347, "timestamp": "2025-12-24T22:42:22.427744+00:00", "meta": {"OBJECT_NAME": "COSMOS 2251 DEB", "OBJECT_ID": "1993-036JZ", "EPOCH": "2025-12-23T11:24:12.352608", "MEAN_MOTION": 14.79073968, "ECCENTRICITY": 0.00730911, "INCLINATION": 74.0287, "RA_OF_ASC_NODE": 116.9159, "ARG_OF_PERICENTER": 193.7638, "MEAN_ANOMALY": 244.3125, "EPHEMERIS_TYPE": 0, "CLASSIFICATION_TYPE": "U", "NORAD_CAT_ID": 34062, "ELEMENT_SET_NO": 999, "REV_AT_EPOCH": 88754, "BSTAR": 0.0027771553, "MEAN_MOTION_DOT": 0.00021535, "MEAN_MOTION_DDOT": 0}, "tle": {"line1": "1 34062U 93036JZ  25357.47514297  .00021535  00000+0  27772-2 0  9999", "line2": "2 34062  74.0287 116.9159 0073091 193.7638 244.3125 14.79073968887541"}}, "geometry": {"type": "Point", "coordinates": [110.52845652625973, -12.012767832613543]}}, {"type": "Feature", "properties": {"norad_id": 34064, "name": "COSMOS 2251 DEB", "group": "cosmos-2251-debris", "lat": 34.84455799794418, "lon": -100.27829012406872, "alt_km": 746.1565989783812, "timestamp": "2025-12-24T22:42:22.427754+00:00", "meta": {"OBJECT_NAME": "COSMOS 2251 DEB", "OBJECT_ID": "1993-036KB", "EPOCH": "2025-12-24T03:15:34.367616", "MEAN_MOTION": 14.4237409, "ECCENTRICITY": 0.00223921, "INCLINATION": 74.0319, "RA_OF_ASC_NODE": 249.7264, "ARG_OF_PERICENTER": 314.7377, "MEAN_ANOMALY": 195.8477, "EPHEMERIS_TYPE": 0, "CLASSIFICATION_TYPE": "U", "NORAD_CAT_ID": 34064, "ELEMENT_SET_NO": 999, "REV_AT_EPOCH": 88306, "BSTAR": 0.00044018398, "MEAN_MOTION_DOT": 1.433e-05, "MEAN_MOTION_DDOT": 0}, "tle": {"line1": "1 34064U 93036KB  25358.13581444  .00001433  00000+0  44018-3 0  9991", "line2": "2 34064  74.0319 249.7264 0022392 314.7377 195.8477 14.42374090883067"}}, "geometry": {"type": "Point", "coordinates": [-100.27829012406872, 34.84455799794418]}}, {"type": "Feature", "properties": {"norad_id": 34065, "name": "COSMOS 2251 DEB", "group": "cosmos-2251-debris", "lat": -39.22856606088156, "lon": 69.15412437279065, "alt_km": 775.0742594136937, "timestamp": "2025-12-24T22:42:22.427765+00:00", "meta": {"OBJECT_NAME": "COSMOS 2251 DEB", "OBJECT_ID": "1993-036KC", "EPOCH": "2025-12-24T02:20:37.657248", "MEAN_MOTION": 14.38074113, "ECCENTRICITY": 0.00168225, "INCLINATION": 74.0349, "RA_OF_ASC_NODE": 237.2005, "ARG_OF_PERICENTER": 332.8126, "MEAN_ANOMALY": 177.7744, "EPHEMERIS_TYPE": 0, "CLASSIFICATION_TYPE": "U", "NORAD_CAT_ID": 34065, "ELEMENT_SET_NO": 999, "REV_AT_EPOCH": 88368, "BSTAR": 0.00014961549, "MEAN_MOTION_DOT": 4.27e-06, "MEAN_MOTION_DDOT": 0}, "tle": {"line1": "1 34065U 93036KC  25358.09765807  .00000427  00000+0  14962-3 0  9991", "line2": "2 34065  74.0349 237.2005 0016822 332.8126 177.7744 14.38074113883682"}}, "geometry": {"type": "Point", "coordinates": [69.15412437279065, -39.22856606088156]}}, {"type": "Feature", "properties": {"norad_id": 34070, "name": "COSMOS 2251 DEB", "group": "cosmos-2251-debris", "lat": 23.172604080617212, "lon": 99.3312737556927, "alt_km": 649.2385416518491, "timestamp": "2025-12-24T22:42:22.427775+00:00", "meta": {"OBJECT_NAME": "COSMOS 2251 DEB", "OBJECT_ID": "1993-036KH", "EPOCH": "2025-12-24T00:37:39.118080", "MEAN_MOTION": 14.77385977, "ECCENTRICITY": 0.00179119, "INCLINATION": 74.0011, "RA_OF_ASC_NODE": 94.0846, "ARG_OF_PERICENTER": 211.3585, "MEAN_ANOMALY": 322.0668, "EPHEMERIS_TYPE": 0, "CLASSIFICATION_TYPE": "U", "NORAD_CAT_ID": 34070, "ELEMENT_SET_NO": 999, "REV_AT_EPOCH": 88777, "BSTAR": 0.0022926738, "MEAN_MOTION_DOT": 0.00016358, "MEAN_MOTION_DDOT": 0}, "tle": {"line1": "1 34070U 93036KH  25358.02614720  .00016358  00000+0  22927-2 0  9996", "line2": "2 34070  74.0011  94.0846 0017911 211.3585 322.0668 14.77385977887776"}}, "geometry": {"type": "Point", "coordinates": [99.3312737556927, 23.172604080617212]}}, {"type": "Feature", "properties": {"norad_id": 34114, "name": "COSMOS 2251 DEB", "group": "cosmos-2251-debris", "lat": 38.86367182546044, "lon": 34.017817413286025, "alt_km": 671.4115421823944, "timestamp": "2025-12-24T22:42:22.427786+00:00", "meta": {"OBJECT_NAME": "COSMOS 2251 DEB", "OBJECT_ID": "1993-036KK", "EPOCH": "2025-12-24T01:13:17.389344", "MEAN_MOTION": 14.5652215, "ECCENTRICITY": 0.00481151, "INCLINATION": 74.0586, "RA_OF_ASC_NODE": 22.3968, "ARG_OF_PERICENTER": 13.2186, "MEAN_ANOMALY": 15.2878, "EPHEMERIS_TYPE": 0, "CLASSIFICATION_TYPE": "U", "NORAD_CAT_ID": 34114, "ELEMENT_SET_NO": 999, "REV_AT_EPOCH": 87966, "BSTAR": 0.0016601561, "MEAN_MOTION_DOT": 7.483e-05, "MEAN_MOTION_DDOT": 0}, "tle": {"line1": "1 34114U 93036KK  25358.05089571  .00007483  00000+0  16602-2 0  9990", "line2": "2 34114  74.0586  22.3968 0048115  13.2186  15.2878 14.56522150879663"}}, "geometry": {"type": "Point", "coordinates": [34.017817413286025, 38.86367182546044]}}, {"type": "Feature", "properties": {"norad_id": 34115, "name": "COSMOS 2251 DEB", "group": "cosmos-2251-debris", "lat": 73.91458815239895, "lon": -58.007288414796804, "alt_km": 610.0486683831241, "timestamp": "2025-12-24T22:42:22.427796+00:00", "meta": {"OBJECT_NAME": "COSMOS 2251 DEB", "OBJECT_ID": "1993-036KL", "EPOCH": "2025-12-24T01:12:55.632096", "MEAN_MOTION": 14.79630558, "ECCENTRICITY": 0.00290627, "INCLINATION": 74.0051, "RA_OF_ASC_NODE": 219.6385, "ARG_OF_PERICENTER": 39.8281, "MEAN_ANOMALY": 320.502, "EPHEMERIS_TYPE": 0, "CLASSIFICATION_TYPE": "U", "NORAD_CAT_ID": 34115, "ELEMENT_SET_NO": 999, "REV_AT_EPOCH": 89579, "BSTAR": 0.00090889204, "MEAN_MOTION_DOT": 6.837e-05, "MEAN_MOTION_DDOT": 0}, "tle": {"line1": "1 34115U 93036KL  25358.05064389  .00006837  00000+0  90889-3 0  9993", "line2": "2 34115  74.0051 219.6385 0029062  39.8281 320.5020 14.79630558895795"}}, "geometry": {"type": "Point", "coordinates": [-58.007288414796804, 73.91458815239895]}}, {"type": "Feature", "properties": {"norad_id": 34116, "name": "COSMOS 2251 DEB", "group": "cosmos-2251-debris", "lat": -32.964552287712614, "lon": 149.05571927308233, "alt_km": 721.5282118657497, "timestamp": "2025-12-24T22:42:22.427807+00:00", "meta": {"OBJECT_NAME": "COSMOS 2251 DEB", "OBJECT_ID": "1993-036KM", "EPOCH": "2025-12-23T10:38:38.194368", "MEAN_MOTION": 14.53036158, "ECCENTRICITY": 0.00117847, "INCLINATION": 74.0396, "RA_OF_ASC_NODE": 162.5854, "ARG_OF_PERICENTER": 238.6047, "MEAN_ANOMALY": 150.107, "EPHEMERIS_TYPE": 0, "CLASSIFICATION_TYPE": "U", "NORAD_CAT_ID": 34116, "ELEMENT_SET_NO": 999, "REV_AT_EPOCH": 88642, "BSTAR": 0.0007775515, "MEAN_MOTION_DOT": 3.187e-05, "MEAN_MOTION_DDOT": 0}, "tle": {"line1": "1 34116U 93036KM  25357.44349762  .00003187  00000+0  77755-3 0  9999", "line2": "2 34116  74.0396 162.5854 0011784 238.6047 150.1070 14.53036158886426"}}, "geometry": {"type": "Point", "coordinates": [149.05571927308233, -32.964552287712614]}}]}